# From MPEC 2025-R69
C/1901 G1 (Greatcomet),e,127.4913,109.6281,201.8081,1522,0.0000166,0.99985776,0.0000,05/17.0617/1901,2000,g  1.7,4.0
# From AMAF 23a (11)
C/1917 F1 (Mellish),e,32.3871,88.7454,121.3391,27.56486,0.0068104,0.99277164,0.0000,06/22.0067/2061,2000,g  9.0,4.0
# From NK 1615
P/1996 R2 (Lagerkvist),e,2.5990,40.0411,333.5018,3.772170,0.1345294,0.31418567,324.2529,09/23.0/2025,2000,g 11.5,4.0
# From MPC 75703
P/1998 VS24 (LINEAR),e,5.0296,159.0360,244.9138,4.520085,0.1025615,0.24352798,286.6670,09/23.0/2025,2000,g 13.0,2.0
# From MPC186628
C/1999 J2 (Skiff),h,04/08.3307/2000,86.4097,50.3054,126.9907,1.000800,7.077884,2000,2.0,4.0
# From NK 731
P/1999 RO28 (LONEOS),e,7.5672,137.8408,231.3553,3.424912,0.1554998,0.67215655,354.1993,09/23.0/2025,2000,g 20.0,2.0
# From MPC 75704
P/1999 XN120 (Catalina),e,5.0300,285.2383,161.5428,4.186201,0.1150731,0.21216644,349.7260,09/23.0/2025,2000,g 13.5,2.0
# From MPEC 2025-R69
C/2000 A1 (Montani),e,24.6125,111.7110,14.2519,14898,0.0000005,0.99935026,0.0000,07/19.6657/2000,2000,g  3.5,4.0
# From NK 744
P/2000 R2 (LINEAR),e,11.6790,160.2687,176.5831,3.468693,0.1525651,0.53059515,349.2748,09/23.0/2025,2000,g 18.0,4.0
# From MPC 43019
P/2001 H5 (NEAT),e,8.3725,328.6807,224.5781,6.094001,0.0655164,0.59940732,238.4665,09/23.0/2025,2000,g 12.0,4.0
# From MPC186628
C/2001 K5 (LINEAR),h,09/30.9469/2002,72.2787,237.4241,47.2349,1.000601,5.213024,2000,4.0,4.0
# From MPEC 2025-R69
C/2002 CE10 (LINEAR),e,145.3833,147.5499,126.2218,9.766514,0.0322920,0.78925914,262.3088,09/23.0/2025,2000,g 13.0,2.0
# From MPEC 2023-UR6
P/2002 EJ57 (LINEAR),e,4.9901,330.2231,167.2869,6.454822,0.0601004,0.59406034,159.3354,09/23.0/2025,2000,g 12.5,4.0
# From MPC186628
C/2002 J4 (NEAT),h,09/23.1076/2003,46.2269,70.7703,231.0723,1.001405,3.679739,2000,5.5,4.0
# From MPC 75007
C/2002 VQ94 (LINEAR),e,70.6411,35.0787,99.8054,187.0994,0.0003851,0.96391190,2.7586,09/23.0/2025,2000,g  9.5,2.0
# From MPC186628
C/2003 A2 (Gleason),e,8.0707,154.4822,346.4975,6430,0.0000019,0.99823330,0.0000,11/06.7653/2003,2000,g  3.5,4.0
# From MPC 50354
P/2003 F2 (NEAT),e,11.6151,358.9444,193.0395,6.547610,0.0588274,0.53751909,125.9757,09/23.0/2025,2000,g 16.5,2.0
# From MPC105235
P/2003 T12 (SOHO),e,11.0221,174.5738,219.7985,2.584167,0.2372593,0.77011939,105.8864,09/23.0/2025,2000,g 17.0,4.0
# From MPEC 2022-YN2
P/2004 FY140 (LINEAR),e,2.1628,327.2621,254.2807,4.968707,0.0889895,0.19282596,313.9665,09/23.0/2025,2000,g 12.5,2.0
# From MPC 53304
P/2004 R3 (LINEAR-NEAT),e,12.8034,305.1215,37.1387,4.746201,0.0953202,0.25463241,140.0093,09/23.0/2025,2000,g 14.5,4.0
# From MPC 75705
P/2004 V5 (LINEAR-Hill),e,19.3340,47.7394,87.1699,8.048218,0.0431673,0.44911340,330.5663,09/23.0/2025,2000,g  8.0,4.0
# From MPC 75705
P/2004 V5-B (LINEAR-Hill),e,19.3342,47.7397,87.1743,8.048457,0.0431653,0.44912957,330.5256,09/23.0/2025,2000,g  8.0,4.0
# From MPC 54164
P/2005 E1 (Tubbiolo),e,4.2606,335.4907,193.9402,7.071606,0.0524116,0.37742518,38.0374,09/23.0/2025,2000,g 10.0,4.0
# From MPC 74246
P/2005 L1 (McNaught),e,9.2070,125.5838,162.7774,3.891839,0.1283725,0.26531197,171.8901,09/23.0/2025,2000,g  9.5,4.0
# From MPC 75706
P/2005 S2 (Skiff),e,3.1389,161.3299,230.0468,7.982760,0.0436993,0.19836109,306.6134,09/23.0/2025,2000,g  7.5,4.0
# From MPC 73461
P/2005 T3 (Read),e,6.2328,27.6203,7.1355,7.571207,0.0473104,0.17404678,344.3177,09/23.0/2025,2000,g  9.0,4.0
# From MPC 73461
P/2005 T4 (SWAN),e,160.2419,25.7976,41.7731,9.351772,0.0344638,0.93080765,250.8051,09/23.0/2025,2000,g 15.0,4.0
# From MPC 75706
P/2005 T5 (Broughton),e,21.3839,57.0612,304.7880,7.257131,0.0504146,0.55167358,5.0428,09/23.0/2025,2000,g 11.0,4.0
# From MPC 75707
P/2006 HR30 (Siding Spring),e,31.9622,309.7506,117.5228,7.795263,0.0452854,0.84358651,309.6266,09/23.0/2025,2000,g 11.0,4.0
# From MPC 84315
C/2007 D1 (LINEAR),e,41.5157,171.0138,339.7759,1263,0.0000219,0.99308358,0.0000,06/15.0929/2007,2000,g  3.5,4.0
# From MPEC 2024-GJ3
P/2007 K2 (Gibbs),e,7.5904,188.3679,347.0617,7.388109,0.0490799,0.68670681,335.9377,09/23.0/2025,2000,g 14.0,4.0
# From MPC 60925
P/2007 Q2 (Gilmore),e,10.1924,172.2301,162.8383,5.660902,0.0731772,0.66866571,129.0413,09/23.0/2025,2000,g 16.0,4.0
# From MPC185655
C/2007 Q3 (Siding Spring),e,65.8112,149.2875,1.9938,4279,0.0000035,0.99947713,0.0000,10/04.2947/2009,2000,g  4.5,4.0
# From MPC 73462
P/2007 S1 (Zhao),e,5.9628,141.3241,245.2825,3.818872,0.1320691,0.33781288,142.9926,09/23.0/2025,2000,g 13.0,4.0
# From MPEC 2024-GJ3
C/2007 S2 (Lemmon),e,16.9195,296.1332,210.1430,12.49293,0.0223207,0.55722310,138.9631,09/23.0/2025,2000,g  6.5,4.0
# From MPC 61994
P/2007 T2 (Kowalski),e,9.7470,3.3945,359.6657,3.043522,0.1856262,0.78540139,125.4017,09/23.0/2025,2000,g 18.5,4.0
# From MPEC 2024-GJ3
C/2008 E1 (Catalina),e,34.8639,188.9018,270.3895,10.76336,0.0279114,0.55296527,174.1371,09/23.0/2025,2000,g  7.0,4.0
# From MPC 64114
P/2008 O3 (Boattini),e,32.3039,47.6066,341.2029,8.208568,0.0419086,0.69604100,264.3206,09/23.0/2025,2000,g 13.0,4.0
# From MPC 75710
P/2008 Y3 (McNaught),e,38.7794,262.8355,238.1558,8.035714,0.0432681,0.44842481,264.6463,09/23.0/2025,2000,g  8.5,4.0
# From MPC 75710
P/2009 B1 (Boattini),e,22.2598,297.1094,129.0151,6.723571,0.0565333,0.63588159,344.1443,09/23.0/2025,2000,g 13.0,4.0
# From MPC 66466
C/2009 G1 (STEREO),e,107.9916,120.8945,175.4947,448.1712,0.0001039,0.99746949,0.0000,04/16.9404/2009,2000,g  9.0,4.0
# From MPC 75710
P/2009 O3 (Hill),e,16.2475,183.7169,154.4073,7.773646,0.0454744,0.68599437,271.2737,09/23.0/2025,2000,g 12.5,4.0
# From MPC 68902
P/2009 Q5 (McNaught),e,40.9507,160.1943,209.2066,7.426327,0.0487016,0.60921897,284.6396,09/23.0/2025,2000,g 10.0,4.0
# From MPC112389
P/2009 T2 (La Sagra),e,27.5946,216.2993,216.0245,7.707142,0.0460643,0.76747354,263.8406,09/23.0/2025,2000,g 14.0,4.0
# From MPC105235
P/2009 WX51 (Catalina),e,9.5983,31.5217,118.2959,3.082540,0.1821130,0.73971967,322.8383,09/23.0/2025,2000,g 19.0,2.0
# From MPC 74247
P/2009 Y2 (Kowalski),e,29.9728,262.0814,172.2589,6.536359,0.0589794,0.63736099,334.3574,09/23.0/2025,2000,g 13.0,4.0
# From MPC185655
C/2010 B1 (Cardinal),e,102.2607,277.2233,211.6139,2645,0.0000072,0.99888407,0.0000,02/03.9134/2011,2000,g  7.5,4.0
# From MPC 75008
P/2010 C1 (Scotti),e,9.1157,141.5863,2.8873,7.131606,0.0517515,0.26417639,303.3748,09/23.0/2025,2000,g  9.5,4.0
# From MPC 75008
P/2010 D2 (WISE),e,57.1380,319.8783,120.0351,6.715215,0.0566388,0.45164695,322.9246,09/23.0/2025,2000,g 16.0,4.0
# From MPC 75009
P/2010 E2 (Jarnac),e,15.4323,177.8339,8.2054,8.634259,0.0388478,0.72113795,220.2119,09/23.0/2025,2000,g 14.0,4.0
# From MPC 72851
P/2010 H2 (Vales),e,14.2789,64.1893,128.0568,3.834683,0.1312532,0.19785776,25.8964,09/23.0/2025,2000,g  6.0,4.0
# From MPC 70361
P/2010 H3 (SOHO),e,23.1452,77.1772,26.0787,3.034967,0.1864116,0.98558093,0.0000,05/25.2418/2026,2000,g 20.0,2.0
# From MPEC 2024-GJ3
P/2010 H4 (Scotti),e,2.3178,44.7480,179.0740,6.619048,0.0578776,0.26725312,324.9545,09/23.0/2025,2000,g 10.5,4.0
# From MPC 74637
P/2010 H5 (Scotti),e,14.0518,24.4628,175.1140,7.170240,0.0513338,0.15582615,291.3106,09/23.0/2025,2000,g 13.0,2.0
# From MPC 98558
P/2010 J3 (McMillan),e,13.2247,106.5419,157.4031,8.988465,0.0365743,0.72418296,202.1475,09/23.0/2025,2000,g 11.0,4.0
# From MPC 84315
P/2010 JC81 (WISE),e,38.7554,30.8432,12.5154,8.102801,0.0427318,0.77799142,224.5056,09/23.0/2025,2000,g  9.0,4.0
# From MPEC 2024-H77
A/2010 LN135,e,64.4103,184.8782,181.5756,41448,0.0000001,0.99995781,0.0000,05/24.8212/2011,2000,g 14.0,2.0
# From MPC 74248
P/2010 T2 (PANSTARRS),e,7.8553,57.7589,350.0206,5.578187,0.0748108,0.32501190,43.3084,09/23.0/2025,2000,g 11.5,4.0
# From MPEC 2023-J95
C/2010 U3 (Boattini),e,55.5391,42.9934,88.0953,168021,0.0000000,0.99994977,0.0000,02/28.4445/2019,2000,g  1.0,4.0
# From MPC 79021
P/2010 UH55 (Spacewatch),e,8.0372,232.8124,225.3426,6.646855,0.0575148,0.56470505,303.4435,09/23.0/2025,2000,g 11.0,4.0
# From MPC 84021
P/2011 C2 (Gibbs),e,10.8967,11.9636,160.2905,7.407740,0.0488850,0.27141149,246.3729,09/23.0/2025,2000,g  9.0,4.0
# From MPC 79866
P/2011 FR143 (Lemmon),e,15.9615,190.8443,349.6230,6.884575,0.0545618,0.45275789,293.0624,09/23.0/2025,2000,g 14.0,2.0
# From MPC 82317
P/2011 JB15 (Spacewatch-Boattini),e,19.1257,153.5858,110.6523,7.381459,0.0491463,0.31492202,246.9498,09/23.0/2025,2000,g  9.0,4.0
# From MPC 87913
P/2011 N1 (ASH),e,35.7850,77.6275,330.5090,6.232546,0.0633441,0.54540391,307.4857,09/23.0/2025,2000,g 11.5,4.0
# From MPEC 2022-ED3
P/2011 P1 (McNaught),e,5.6510,4.2510,349.1629,7.462498,0.0483479,0.32619552,267.3720,09/23.0/2025,2000,g  9.0,4.0
# From MPEC 2022-HC2
P/2011 S1 (Gibbs),e,2.6881,218.8977,192.9962,8.598232,0.0390922,0.20076866,158.2205,09/23.0/2025,2000,g  8.0,4.0
# From MPEC 2023-UR6
P/2011 V1 (Boattini),e,7.3826,46.4917,269.5992,3.857802,0.1300751,0.54836208,332.3541,09/23.0/2025,2000,g 15.5,4.0
# From MPC 82718
P/2011 W1 (PANSTARRS),e,3.7159,161.8004,283.0674,4.674955,0.0975075,0.28841454,128.8490,09/23.0/2025,2000,g 11.5,4.0
# From MPC 79342
P/2011 Y2 (Boattini),e,6.3927,309.3196,132.0839,6.227208,0.0634255,0.71119734,313.1143,09/23.0/2025,2000,g 15.0,4.0
# From MPEC 2022-K19
P/2012 B1 (PANSTARRS),e,7.6051,36.2086,161.8849,6.543538,0.0588824,0.41026534,264.2017,09/23.0/2025,2000,g  9.0,4.0
# From MPC 78590
P/2012 C3 (PANSTARRS),e,9.0920,135.3677,344.9542,9.748681,0.0323806,0.63011148,359.9758,10/06.0/2011,2000,g 13.0,4.0
# From MPC 84931
P/2012 F2 (PANSTARRS),e,14.6971,226.9382,33.1619,6.348881,0.0616110,0.54081420,281.5881,09/23.0/2025,2000,g 12.0,4.0
# From MPEC 2022-ED3
P/2012 G1 (PANSTARRS),e,12.1681,283.2348,266.0109,4.162127,0.1160730,0.32969536,211.2403,09/23.0/2025,2000,g 15.0,4.0
# From MPC 80898
P/2012 K3 (Gibbs),e,13.1814,125.8033,172.1275,3.633071,0.1423290,0.42170254,317.8876,09/23.0/2025,2000,g 15.0,4.0
# From MPC184408
C/2012 KA51 (Palomar),e,70.7090,344.8154,94.0110,534.8051,0.0000797,0.99089664,0.0000,11/06.1325/2011,2000,g  8.7,4.0
# From MPC 88326
